[{"OBJECT_NAME":"STARLINK-4393","OBJECT_ID":"2022-099F","EPOCH":"2026-03-09T22:07:48.387648","MEAN_MOTION":15.01259694,"ECCENTRICITY":0.0002203,"INCLINATION":97.6017,"RA_OF_ASC_NODE":190.439,"ARG_OF_PERICENTER":80.9921,"MEAN_ANOMALY":279.1553,"EPHEMERIS_TYPE":0,"CLASSIFICATION_TYPE":"U","NORAD_CAT_ID":53470,"ELEMENT_SET_NO":999,"REV_AT_EPOCH":19601,"BSTAR":-9.8480926e-5,"MEAN_MOTION_DOT":-1.323e-5,"MEAN_MOTION_DDOT":0},{"OBJECT_NAME":"QPS-SAR-14 (YACHIHOKO-I)","OBJECT_ID":"2025-252A","EPOCH":"2026-03-09T23:58:05.760192","MEAN_MOTION":14.98763566,"ECCENTRICITY":0.00075988,"INCLINATION":42.0055,"RA_OF_ASC_NODE":316.7582,"ARG_OF_PERICENTER":330.3293,"MEAN_ANOMALY":29.71,"EPHEMERIS_TYPE":0,"CLASSIFICATION_TYPE":"U","NORAD_CAT_ID":66316,"ELEMENT_SET_NO":999,"REV_AT_EPOCH":1862,"BSTAR":0.00051193076,"MEAN_MOTION_DOT":6.093e-5,"MEAN_MOTION_DDOT":0}]
